01410   11.1   0.15 K172G 171.59323  233.19637  170.94086   10.35360  0.1041974  0.18757265   3.0224309  0 MPO400007  1635  33 1924-2017 0.48 M-v 38h MPCLINUX   0000   (1410) Margret            20170302
01411   11.0   0.15 K172G 248.05386   94.69223  284.59576    8.03934  0.0565578  0.18944933   3.0024376  0 MPO389590  1523  27 1937-2016 0.43 M-v 38h MPCLINUX   0000   (1411) Brauna             20160911
01412   12.3   0.15 K172G 145.57680   14.05174   66.11762    4.71784  0.1128259  0.29904816   2.2146680  0 MPO400007  1648  33 1929-2017 0.49 M-v 38h MPCLINUX   0000   (1412) Lagrula            20170303
01413   11.3   0.15 K172G 101.09872  300.66744  178.75251   10.23563  0.0650744  0.18768919   3.0211795  0 MPO400007  1572  32 1937-2017 0.48 M-v 38h MPCLINUX   0000   (1413) Roucarie           20170303
01414   13.1   0.15 K172G  67.50541    2.75040  143.76319    8.85579  0.1613691  0.21212884   2.7844296  0 MPO400007  1510  27 1937-2017 0.48 M-v 38h MPCLINUX   0000   (1414) Jerome             20170303
01415   12.19  0.15 K172G 354.17109  240.76825  329.21892    3.42482  0.0868218  0.29713384   2.2241699  0 MPO400007  1556  38 1906-2017 0.47 M-v 38h MPCLINUX   0000   (1415) Malautra           20170303
01416   10.7   0.15 K172G 156.58466   66.10057  352.62226   10.03489  0.1058468  0.18781793   3.0197988  0 MPO400007  1563  39 1919-2017 0.45 M-v 38h MPCLINUX   0000   (1416) Renauxa            20170304
01417   11.0   0.15 K172G 160.73460  166.41633   96.01753    8.27210  0.0773118  0.19228623   2.9728335  0 MPO400007  1842  31 1937-2017 0.46 M-v 38h MPCLINUX   0000   (1417) Walinskia          20170224
01418   12.09  0.15 K172G 312.85252  324.34117  355.11645    7.19383  0.2029132  0.29367784   2.2415853  0 MPO384760  1722  34 1903-2016 0.46 M-v 38h MPCLINUX   0000   (1418) Fayeta             20160718
01419   11.3   0.15 K172G 356.63412  232.64674  213.52906    5.72542  0.1464591  0.28390327   2.2927452  0 MPO400007  1783  36 1917-2017 0.45 M-v 38h MPCLINUX   0000   (1419) Danzig             20170308
01420   12.0   0.15 K172G 292.19973   74.10114  260.91173    3.48535  0.0758197  0.21631533   2.7483867  0 MPO384760  1978  34 1931-2016 0.47 M-v 38h MPCLINUX   0000   (1420) Radcliffe          20160803
01421   10.4   0.15 K172G 291.35551  164.47408   42.62194    9.80971  0.0835799  0.18158471   3.0885161  0 MPO400007  1845  34 1906-2017 0.46 M-v 38h MPCLINUX   0000   (1421) Esperanto          20170305
01422   13.42  0.15 K172G 291.17939  171.14599  201.61136    2.68091  0.1678772  0.29263306   2.2469175  0 MPO384760  1773  27 1936-2016 0.48 M-v 38h MPCLINUX   0000   (1422) Stromgrenia        20160801
01423   10.9   0.15 K172G 210.76386  321.43825   58.46781    2.90714  0.0791528  0.20366876   2.8610126  0 MPO400007  1897  34 1936-2017 0.45 M-v 38h MPCLINUX   0000   (1423) Jose               20170307
01424    9.9   0.15 K172G 161.63204  301.56008   42.99429    9.17775  0.0612304  0.17315689   3.1879356  0 MPO400007  1875  40 1918-2017 0.47 M-v 38h MPCLINUX   0000   (1424) Sundmania          20170307
01425   11.4   0.15 K172G 353.44097  342.36615  185.98949   12.97591  0.1007898  0.23350241   2.6118113  0 MPO400007  1792  35 1937-2017 0.45 M-v 38h MPCLINUX   0000   (1425) Tuorla             20170306
01426   10.9   0.15 K172G  64.27388  274.99218  335.04109    9.06424  0.1597866  0.23766274   2.5812416  0 MPO389591  1742  44 1937-2016 0.48 M-v 38h MPCLINUX   0000   (1426) Riviera            20160824
01427   11.2   0.15 K172G 122.39325  241.84809   78.44515    9.34614  0.2119783  0.21625827   2.7488702  0 MPO400007  1597  37 1929-2017 0.45 M-v 38h MPCLINUX   0000   (1427) Ruvuma             20170228
01428   10.3   0.15 K172G 263.80641  252.61270  115.71901   17.30466  0.1403156  0.20928145   2.8096285  0 MPO384760  1588  35 1933-2016 0.41 M-v 38h MPCLINUX   0000   (1428) Mombasa            20160813
01429   12.4   0.15 K172G 159.40220  297.80981   47.71233    7.74828  0.3353110  0.24141404   2.5544321  0 MPO400007  1495  33 1937-2017 0.47 M-v 38h MPCLINUX   0000   (1429) Pemba              20170307
01430   12.1   0.15 K172G 136.34076  351.45150  327.24982    3.28825  0.1986077  0.24073493   2.5592339  0 MPO400007  1850  31 1937-2017 0.46 M-v 38h MPCLINUX   0000   (1430) Somalia            20170221
01431   11.7   0.15 K172G 247.26158  224.00977  117.75210   13.98468  0.1828087  0.23225878   2.6211263  0 MPO400007  1549  27 1937-2017 0.45 M-v 38h MPCLINUX   0000   (1431) Luanda             20170302
01432   12.1   0.15 K172G 213.01984  218.29963  123.30504    8.27081  0.2257918  0.26793303   2.3829698  0 MPO400007  1560  33 1937-2017 0.49 M-v 38h MPCLINUX   0000   (1432) Ethiopia           20170307
01433   11.6   0.15 K172G 337.04593   93.99240  321.57743    8.23692  0.1716744  0.21078494   2.7962521  0 MPO400008  1345  26 1937-2017 0.44 M-v 38h MPCLINUX   0000   (1433) Geramtina          20170127
01434   10.43  0.15 K172G  49.04583  147.78006  152.42042   10.83273  0.0651540  0.18794237   3.0184658  0 MPO395004  1799  32 1906-2016 0.49 M-v 38h MPCLINUX   0000   (1434) Margot             20161221
01435   13.0   0.15 K172G 213.65088  268.76122  189.20275    4.03945  0.2508616  0.22933137   2.6433849  0 MPO384760  1383  27 1936-2016 0.53 M-v 38h MPCLINUX   0000   (1435) Garlena            20160708
01436   10.3   0.15 K172G 293.24641   29.46009  260.43395   13.88252  0.0627117  0.17644070   3.1482572  0 MPO400008  1528  37 1937-2017 0.44 M-v 38h MPCLINUX   0000   (1436) Salonta            20170305
01437    8.30  0.15 K172G 200.59582  131.47022  315.79336   20.49040  0.0438909  0.08322077   5.1957496  0 MPO347527  1243  40 1937-2015 0.49 M-v 38h MPCLINUX   0009   (1437) Diomedes           20150808
01438   11.6   0.15 K172G   4.73254  129.66592  238.34478    2.04104  0.2372611  0.17546881   3.1598715  0 MPO395004  1877  35 1937-2016 0.48 M-v 38h MPCLINUX   0000   (1438) Wendeline          20161222
01439   10.45  0.15 K172G 250.93458  101.69961   35.57478    4.20339  0.1179454  0.12306981   4.0028413  0 MPO400008  1557  33 1937-2017 0.49 M-v 38h MPCLINUX   0008   (1439) Vogtia             20170127
01440   12.5   0.15 K172G  60.30312  349.80415   46.85306    2.28315  0.1941147  0.17611158   3.1521783  0 MPO400008  1603  26 1937-2017 0.50 M-v 38h MPCLINUX   0000   (1440) Rostia             20170305
01441   13.2   0.15 K172G 240.99073  115.94753  254.02231   13.91437  0.2384850  0.23084240   2.6318371  0 MPO400008  1115  23 1937-2017 0.49 M-v 38h MPCLINUX   0000   (1441) Bolyai             20170215
01442   11.57  0.15 K172G 199.15920  126.35604  220.76034    1.25664  0.0765246  0.20186199   2.8780589  0 MPO400008  2189  38 1902-2017 0.47 M-v 38h MPCLINUX   0000   (1442) Corvina            20170306
01443   11.1   0.15 K172G  21.99547  163.16289  174.89284    1.92984  0.0640636  0.19571608   2.9379995  0 MPO395005  2195  42 1931-2016 0.48 M-v 38h MPCLINUX   0000   (1443) Ruppina            20161225
01444   11.4   0.15 K172G 268.73047  310.86985  303.32612   17.76131  0.1393691  0.17611457   3.1521426  0 MPO400008  1279  23 1938-2017 0.46 M-v 38h MPCLINUX   0000   (1444) Pannonia           20170306
01445   11.84  0.15 K172G 238.03767  274.03050   88.92694    2.28032  0.1816351  0.17880399   3.1204549  0 MPO400008  1916  34 1952-2017 0.48 M-v 38h MPCLINUX   0000   (1445) Konkolya           20170303
01446   12.6   0.15 K172G  98.11233  196.24741   17.54876    5.25718  0.1013691  0.29290060   2.2455491  0 MPO384760  1634  28 1938-2016 0.46 M-v 38h MPCLINUX   0000   (1446) Sillanpaa          20160808
01447   11.7   0.15 K172G 236.66265   64.23476   35.52730    4.78657  0.0416087  0.24421632   2.5348538  0 MPO395005  1666  34 1938-2016 0.46 M-v 38h MPCLINUX   0000   (1447) Utra               20161114
01448   12.9   0.15 K172G 233.49318   74.64459   44.90346    5.81916  0.1843381  0.26958364   2.3732329  0 MPO389591  1417  29 1938-2016 0.50 M-v 38h MPCLINUX   0000   (1448) Lindbladia         20161103
01449   12.1   0.15 K172G 229.55301  132.17203  110.78280    6.64130  0.1418669  0.29750747   2.2223074  0 MPO400008  1786  33 1928-2017 0.46 M-v 38h MPCLINUX   0000   (1449) Virtanen           20170225
01450   12.3   0.15 K172G 304.75371   13.43226   74.92915    4.86327  0.1714264  0.23349125   2.6118946  0 MPO395005  1523  34 1915-2017 0.50 M-v 38h MPCLINUX   0000   (1450) Raimonda           20170102
01451   13.2   0.15 K172G   0.64045   51.85881  175.28774    5.10875  0.1176332  0.30135994   2.2033274  0 MPO374860  1667  24 1938-2016 0.51 M-v 38h MPCLINUX   0000   (1451) Grano              20160402
01452   12.1   0.15 K172G 158.79750   94.50389   21.35278   14.21103  0.2027130  0.17977555   3.1092021  0 MPO384760  1114  24 1949-2016 0.48 M-v 38h MPCLINUX   0000   (1452) Hunnia             20160710
01453   12.5   0.15 K172G 357.57264  254.61605    7.08944   23.67524  0.0280413  0.37726470   1.8968745  0 MPO400008  1277  28 1938-2017 0.43 M-v 38h MPCLINUX   0006   (1453) Fennia             20170309
01454   12.7   0.15 K172G 116.06579  134.66455  352.54942    5.09054  0.1433674  0.27110723   2.3643330  0 MPO384760  1689  28 1936-2016 0.48 M-v 38h MPCLINUX   0000   (1454) Kalevala           20160706
01455   12.8   0.15 K172G 262.58076  100.66677  128.33714    7.75536  0.1247005  0.29270498   2.2465494  0 MPO400008  1731  23 1937-2017 0.43 M-v 38h MPCLINUX   0000   (1455) Mitchella          20170223
01456   10.93  0.15 K172G 278.26206   65.11907  282.46226   10.43535  0.2197975  0.17176247   3.2051660  0 MPO384760  1422  32 1926-2016 0.50 M-v 38h MPCLINUX   0000   (1456) Saldanha           20160708
01457   10.8   0.15 K172G  63.23427  296.31212  296.30652    6.09131  0.1544853  0.22255171   2.6968001  0 MPO389591  1940  38 1933-2016 0.47 M-v 38h MPCLINUX   0000   (1457) Ankara             20160827
01458   11.3   0.15 K172G 292.61942   99.83148  181.66222   12.54031  0.1800996  0.23135072   2.6279805  0 MPO400008  1718  37 1937-2017 0.48 M-v 38h MPCLINUX   0000   (1458) Mineura            20170307
